#dP2023  8 30  6  0  0.00000000      96 __u+U ITR00 EXT  IAC
## 2277 280800.00000000   900.00000000 60186 0.2500000000000
+  119   C06C07C08C09C10C11C12C13C14C16C19C20C21C22C23C24C25
+        C26C27C28C29C30C32C33C34C35C36C37C38C39C40C41C42C43
+        C44C45C46E02E03E04E05E07E08E09E10E11E12E13E14E15E18
+        E19E21E24E25E26E27E30E31E33E34E36G01G02G03G04G05G06
+        G07G08G09G10G11G12G13G14G15G16G17G18G19G20G21G22G23
+        G24G25G26G27G28G29G30G31G32J02J03J04R01R02R03R04R05
+        R07R08R09R11R12R13R14R15R16R17R18R19R20R21R22R24R25
++         8 10 10 10 10 13 14 10  8  9  7  9  8 10  8  9  9
++         8  8  9 10  8  8  8  7  9  9 10 10  9 12  8  8  8
++         8 10  8  7  7  8  7  8  8  8  8  8  8  7  7  7  7
++         8  8  7  7  8  9  6  8  8  7  7  7  8  7  8  8  8
++         6  8  7  8  7  7  9  7  7  8  7  7  8  7  8  7  8
++         7  8  8  8  7  7  7  8  8  9  9  9  7  8  8  9  8
++         9  9  7  9  8  9  7  7  7  9  8 10  9  9  8  8  8
%c M  cc GPS ccc cccc cccc cccc cccc ccccc ccccc ccccc ccccc
%c cc cc ccc ccc cccc cccc cccc cccc ccccc ccccc ccccc ccccc
%f  0.0000000  0.000000000  0.00000000000  0.000000000000000
%f  0.0000000  0.000000000  0.00000000000  0.000000000000000
%i    0    0    0    0      0      0      0      0         0
%i    0    0    0    0      0      0      0      0         0
/* IAC                                ULTRA-RAPID PREDICTION
/* S/V CLOCKS ARE ALIGNED TO GNSS TIME                      
/* G:C1WC2W R:C1PC2P E:C1XC5X C:C2IC6I J:C1CC2S             
/* PCV:IGS20_2274 OL/AL:FES2004  NONE     YN ORB:CoN CLK:CoN
*  2023 08 30 13 30  0.00000000
PC06 -14775.975617  24653.394713  30789.757305    940.761072
PC07 -11912.504046  40491.910266   2482.126617     -9.970467
PC08    859.498407  27823.257432 -31607.335968    367.894655
PC09  -5288.883048  24888.643260  33969.521882    228.502355
PC10  -6629.951869  41763.118783  -3586.056706   -162.042026
PC11  12805.495256 -17611.160367  17503.418219    806.163781
PC12  25468.569856 -11337.883386   1034.992418    915.421004
PC13   6534.300623  31404.078808 -27069.376160    343.314208
PC14   6158.730411 -26752.419750   4852.234210    317.663905
PC16 -18595.080432  23773.419032  29561.279763    -57.855276
PC19    149.540377  27550.390462   4526.823168   -970.790256
PC20 -10620.308603  22884.301398 -11957.255119    322.367570
PC21  15886.297019  -3850.833813  22619.759196   -959.243442
PC22  11384.469260  16645.190904  19289.169235   -328.985208
PC23 -20910.260232 -18192.537147  -3255.971059   -887.707581
PC24  12769.172866 -10699.035256 -22390.995427    339.305705
PC25  -7106.424526 -20415.299977 -17665.504183    200.486394
PC26  23646.802995   3922.451926 -14273.241233   -170.572907
PC27 -26312.407400   5862.251409   7188.402516    191.953740
PC28 -18348.956248  -7117.990639  19792.051873    143.792473
PC29  -1748.429630  17580.252307 -21608.203960    167.833124
PC30 -20210.727207  16841.721610  -9294.606870     -4.188019
PC32 -15864.306410   3878.779176 -22622.961697   -530.051430
PC33   -249.376217 -27548.267833  -4401.943582   -951.297846
PC34  19233.710333 -17287.779464  10491.211045    248.513554
PC35  18499.570699   6629.763343 -19836.724256    557.028652
PC36   5788.431394  20399.245804  18164.910498   -250.581266
PC37 -23823.831651  -5244.252210  13591.792424   -816.954949
PC38  -7417.592182  24085.173631 -33742.973636    101.542646
PC39 -23718.256712  23680.802888  25476.547365     -4.552913
PC40 -18238.009320  37800.973539   5332.817131    -34.711805
PC41 -11132.134273 -17265.925842 -18838.322128   -882.885694
PC42  11332.622676 -21823.750838  13204.432918   -561.906457
PC43   2708.014037 -17902.894112  21228.422669     37.551957
PC44  26097.150811  -6649.622396  -7372.278312    216.047677
PC45  21150.553175  17974.113262   2769.594301    -19.926729
PC46 -11595.634314  11524.113136  22621.412660    -80.456112
PE02   8769.135453  28123.555495   2820.094579     58.954825
PE03    498.908577  21842.450860  19970.675802    -51.020903
PE04 -16333.048274  -6319.646187 -23860.941101   -200.931411
PE05 -15696.871094  24704.475982   4424.889850     13.761736
PE07  22719.148977 -12789.619410  14007.842549    -71.166825
PE08  15938.316471   6662.146438  24032.115190   -138.417724
PE09 -22646.797104  12751.718479 -14181.462227   -138.713178
PE10 -29340.622619  -3940.124823   -519.111882   -559.991043
PE11 -27424.913663   2934.587835 -10754.905537   2832.232506
PE12 -26546.590914  -9702.158247   8775.530283   -678.113198
PE13  27713.783083  -2461.258365  10095.656324    -19.537273
PE14  16383.946585  10308.801989 -22638.270590    326.058725
PE15  26354.893653   9853.345987  -9185.919756    -49.235206
PE18 -23103.744588   6876.707013  14146.063684    473.185302
PE19   1961.253577 -22975.533602 -18557.523797  -1738.649004
PE21   4923.260314 -22539.153985 -18538.670004   -549.696009
PE24 -16817.720512   2870.859241  24182.486691   -294.169194
PE25  -5199.258849  22288.800091  18780.717211     -1.052395
PE26  12101.491022 -13580.495058  23347.622391    207.861574
PE27  16531.479250  -3611.212215 -24277.391004   -137.476980
PE30  18155.953015  17659.203525 -15313.998678   -459.691785
PE31 -18283.882372 -17226.363750  15669.827011     -3.894100
PE33  -8912.313004 -16282.811192  23058.199188     -1.024488
PE34   9610.126797  16218.559712 -22824.928741    -64.345145
PE36 -12841.855132  13162.307838 -23197.888345   -108.724483
PG01  16263.266558  13937.280832 -16268.851310    166.859529
PG02   9879.437219  14384.035088 -19571.374890   -559.717578
PG03  12664.274645  22576.465378   6056.554824   -161.577790
PG04   8514.880111  12958.909464  21559.913044    141.155875
PG05  -4071.287711 -24694.130051   8557.438082   -140.796046
PG06  20664.671744  -6584.049707  15457.467644    558.653523
PG07  25973.938906   6349.646529   2598.999053     81.229888
PG08   -479.022180  20180.809851 -17126.755090   -139.732997
PG09  15734.161426   3918.666333  20961.946470    -73.133365
PG10 -13845.348716   4993.220501 -21929.491835    -51.366920
PG11   7584.721720 -13573.447224  21537.960795   -344.841428
PG12  -8950.318508 -24918.718530   2275.839791   -418.971289
PG13  10225.915794 -21009.912957 -12614.386582    566.467980
PG14  15729.550725  -1392.800779 -21349.305775    169.809169
PG15  -3055.908376 -19975.615663 -17594.894111     72.696849
PG16  -2368.592029  23141.873084  12079.403966   -461.274410
PG17  21090.355214 -11355.216671 -11157.649520    723.321347
PG18 -26246.929073  -4638.699312   -463.899629   -400.438113
PG19  20631.143319 -15888.679173  -4413.516222    364.682358
PG20   3096.053563 -19766.016862  17596.469007    414.496948
PG21   7835.128158  14818.181511 -20280.484491    149.850244
PG22  12429.423421  -9784.417051 -20916.160430    131.594994
PG23 -17033.493665  -8529.635634 -18576.066969     61.671757
PG24 -12396.952635 -14860.849598 -18736.744312   -305.086100
PG25 -16421.641357 -15851.689147  13487.138125    465.054640
PG26  -8664.591852  15684.476042  19378.612166    230.801567
PG27 -11219.720214  22499.473411  -8133.914947    -31.029853
PG28 -21880.683154   6569.453258  13526.662595     -3.492639
PG29 -15141.869408  -5008.024001  21211.042992   -608.641478
PG30  25591.410702  -1023.946385  -7412.051114   -492.153467
PG31 -13705.913857  11481.360767  19586.239276   -222.641291
PG32 -19885.612050  15265.876474  -8273.117301   -549.620046
PJ02 -26839.275228  23718.398345  27359.255862     -3.265446
PJ03 -34184.352954  17561.665625 -12771.135742     -1.837984
PJ04 -19712.231635  32951.646278 -12252.600218     70.506054
PR01 -11966.164390  16730.540203 -15096.554372     64.558773
PR02  -6466.718588  24539.848897   2230.456145    -22.484159
PR03   3295.931931  18102.475179  17676.601515     84.280416
PR04  10656.918542   1892.566051  23121.605547    200.783426
PR05  12562.830623 -15344.658108  16065.710842    118.182325
PR07  -3634.810051 -17590.358972 -18102.114008     63.547054
PR08 -10796.840219  -1689.833712 -22993.846773    -72.361839
PR09  -3232.914197 -16576.171440 -19062.283898    139.512181
PR11 -19368.247077 -12305.923319  11135.250422   -147.581698
PR12 -11489.426000   3628.275849  22514.812734     30.735589
PR13   1480.974221  15423.891423  20254.506255    -38.689942
PR14  15659.505378  19548.515741   4904.803419     25.169479
PR15  19176.518082  11536.529540 -12223.197707     86.605999
PR16  11580.095664  -3306.796938 -22475.708695     18.212901
PR17  10319.151666   7859.343262 -21947.086754     13.227257
PR18  22919.143963     93.099403 -11226.087843     99.391642
PR19  24396.756605  -6380.997937   3790.943414   -245.375320
PR20   9977.036063 -11216.185086  20638.794847    -99.192308
PR21 -11362.485726  -7431.260198  21601.528278    -34.254382
PR22 -23328.951576   -549.848907  10320.207532    121.952779
PR24  -8845.610686  11977.638331 -20703.255626    -22.433532
PR25 -10043.164322  -8599.544671  21823.281060     40.139986
EOF
